{
  "type": "FeatureCollection",
  "features": [
    {
      "type": "Feature",
      "properties": {
        "norad_id": 39773,
        "name": "EUTELSAT 3B",
        "group": "eutelsat",
        "lat": 0.08676807880229946,
        "lon": 84.84393488369926,
        "alt_km": 35800.92443437925,
        "timestamp": "2025-12-18T23:35:48.718805+00:00",
        "meta_object_name": "EUTELSAT 3B",
        "meta_object_id": "2014-030A",
        "meta_epoch": "2025-12-18T13:18:34.094592",
        "meta_mean_motion": 1.00272203,
        "meta_eccentricity": 0.00042037,
        "meta_inclination": 0.0602,
        "meta_ra_of_asc_node": 2.0481,
        "meta_arg_of_pericenter": 230.0847,
        "meta_mean_anomaly": 58.0141,
        "meta_ephemeris_type": 0,
        "meta_classification_type": "U",
        "meta_norad_cat_id": 39773,
        "meta_element_set_no": 999,
        "meta_rev_at_epoch": 4225,
        "meta_bstar": 0,
        "meta_mean_motion_dot": 4.5e-07,
        "meta_mean_motion_ddot": 0,
        "tle_line1": "1 39773U 14030A   25352.55456128  .00000045  00000+0  00000+0 0  9997",
        "tle_line2": "2 39773   0.0602   2.0481 0004203 230.0847  58.0141  1.00272203 42256"
      },
      "geometry": {
        "type": "Point",
        "coordinates": [
          84.84393488369926,
          0.08676807880229946
        ]
      }
    },
    {
      "type": "Feature",
      "properties": {
        "norad_id": 40425,
        "name": "EUTELSAT 115 WEST B",
        "group": "eutelsat",
        "lat": -0.005592246169221183,
        "lon": -33.11637004795333,
        "alt_km": 35784.708138791626,
        "timestamp": "2025-12-18T23:35:48.718831+00:00",
        "meta_object_name": "EUTELSAT 115 WEST B",
        "meta_object_id": "2015-010B",
        "meta_epoch": "2025-12-18T14:27:42.472224",
        "meta_mean_motion": 1.00271646,
        "meta_eccentricity": 3.765e-05,
        "meta_inclination": 0.0424,
        "meta_ra_of_asc_node": 168.3166,
        "meta_arg_of_pericenter": 130.9082,
        "meta_mean_anomaly": 250.267,
        "meta_ephemeris_type": 0,
        "meta_classification_type": "U",
        "meta_norad_cat_id": 40425,
        "meta_element_set_no": 999,
        "meta_rev_at_epoch": 3958,
        "meta_bstar": 0,
        "meta_mean_motion_dot": 0,
        "meta_mean_motion_ddot": 0,
        "tle_line1": "1 40425U 15010B   25352.60257491  .00000000  00000+0  00000+0 0  9991",
        "tle_line2": "2 40425   0.0424 168.3166 0000376 130.9082 250.2670  1.00271646 39581"
      },
      "geometry": {
        "type": "Point",
        "coordinates": [
          -33.11637004795333,
          -0.005592246169221183
        ]
      }
    },
    {
      "type": "Feature",
      "properties": {
        "norad_id": 40875,
        "name": "EUTELSAT 8 WEST B",
        "group": "eutelsat",
        "lat": 0.08976876639986571,
        "lon": 73.80557786561361,
        "alt_km": 35803.674652294554,
        "timestamp": "2025-12-18T23:35:48.718852+00:00",
        "meta_object_name": "EUTELSAT 8 WEST B",
        "meta_object_id": "2015-039B",
        "meta_epoch": "2025-12-18T13:15:11.917728",
        "meta_mean_motion": 1.00271876,
        "meta_eccentricity": 0.00043101,
        "meta_inclination": 0.0635,
        "meta_ra_of_asc_node": 353.4802,
        "meta_arg_of_pericenter": 275.5286,
        "meta_mean_anomaly": 9.217,
        "meta_ephemeris_type": 0,
        "meta_classification_type": "U",
        "meta_norad_cat_id": 40875,
        "meta_element_set_no": 999,
        "meta_rev_at_epoch": 3784,
        "meta_bstar": 0,
        "meta_mean_motion_dot": -4e-07,
        "meta_mean_motion_ddot": 0,
        "tle_line1": "1 40875U 15039B   25352.55222127 -.00000040  00000+0  00000+0 0  9998",
        "tle_line2": "2 40875   0.0635 353.4802 0004310 275.5286   9.2170  1.00271876 37841"
      },
      "geometry": {
        "type": "Point",
        "coordinates": [
          73.80557786561361,
          0.08976876639986571
        ]
      }
    },
    {
      "type": "Feature",
      "properties": {
        "norad_id": 41310,
        "name": "EUTELSAT 9B",
        "group": "eutelsat",
        "lat": 0.042746383633877616,
        "lon": 90.77300032167233,
        "alt_km": 35804.81743863868,
        "timestamp": "2025-12-18T23:35:48.718865+00:00",
        "meta_object_name": "EUTELSAT 9B",
        "meta_object_id": "2016-005A",
        "meta_epoch": "2025-12-18T13:20:18.927168",
        "meta_mean_motion": 1.0027214,
        "meta_eccentricity": 0.00044623,
        "meta_inclination": 0.0585,
        "meta_ra_of_asc_node": 70.4318,
        "meta_arg_of_pericenter": 203.8927,
        "meta_mean_anomaly": 22.1605,
        "meta_ephemeris_type": 0,
        "meta_classification_type": "U",
        "meta_norad_cat_id": 41310,
        "meta_element_set_no": 999,
        "meta_rev_at_epoch": 3630,
        "meta_bstar": 0,
        "meta_mean_motion_dot": 8.7e-07,
        "meta_mean_motion_ddot": 0,
        "tle_line1": "1 41310U 16005A   25352.55577462  .00000087  00000+0  00000+0 0  9992",
        "tle_line2": "2 41310   0.0585  70.4318 0004462 203.8927  22.1605  1.00272140 36304"
      },
      "geometry": {
        "type": "Point",
        "coordinates": [
          90.77300032167233,
          0.042746383633877616
        ]
      }
    },
    {
      "type": "Feature",
      "properties": {
        "norad_id": 41382,
        "name": "EUTELSAT 65 WEST A",
        "group": "eutelsat",
        "lat": 0.05548795668420922,
        "lon": 16.58487121675979,
        "alt_km": 35788.24620472749,
        "timestamp": "2025-12-18T23:35:48.718885+00:00",
        "meta_object_name": "EUTELSAT 65 WEST A",
        "meta_object_id": "2016-014A",
        "meta_epoch": "2025-12-18T12:22:31.161216",
        "meta_mean_motion": 1.0026978,
        "meta_eccentricity": 0.00023046,
        "meta_inclination": 0.0555,
        "meta_ra_of_asc_node": 327.9484,
        "meta_arg_of_pericenter": 309.5717,
        "meta_mean_anomaly": 290.2696,
        "meta_ephemeris_type": 0,
        "meta_classification_type": "U",
        "meta_norad_cat_id": 41382,
        "meta_element_set_no": 999,
        "meta_rev_at_epoch": 3572,
        "meta_bstar": 0,
        "meta_mean_motion_dot": -2.51e-06,
        "meta_mean_motion_ddot": 0,
        "tle_line1": "1 41382U 16014A   25352.51563844 -.00000251  00000+0  00000+0 0  9990",
        "tle_line2": "2 41382   0.0555 327.9484 0002304 309.5717 290.2696  1.00269780 35727"
      },
      "geometry": {
        "type": "Point",
        "coordinates": [
          16.58487121675979,
          0.05548795668420922
        ]
      }
    },
    {
      "type": "Feature",
      "properties": {
        "norad_id": 41589,
        "name": "EUTELSAT 117 WEST B",
        "group": "eutelsat",
        "lat": -0.005984172949168205,
        "lon": -35.207297162154326,
        "alt_km": 35785.18173677387,
        "timestamp": "2025-12-18T23:35:48.718897+00:00",
        "meta_object_name": "EUTELSAT 117 WEST B",
        "meta_object_id": "2016-038B",
        "meta_epoch": "2025-12-18T14:08:49.387200",
        "meta_mean_motion": 1.00271024,
        "meta_eccentricity": 3.208e-05,
        "meta_inclination": 0.043,
        "meta_ra_of_asc_node": 169.4138,
        "meta_arg_of_pericenter": 119.9849,
        "meta_mean_anomaly": 253.2688,
        "meta_ephemeris_type": 0,
        "meta_classification_type": "U",
        "meta_norad_cat_id": 41589,
        "meta_element_set_no": 999,
        "meta_rev_at_epoch": 3485,
        "meta_bstar": 0,
        "meta_mean_motion_dot": 1.4e-07,
        "meta_mean_motion_ddot": 0,
        "tle_line1": "1 41589U 16038B   25352.58946050  .00000014  00000+0  00000+0 0  9992",
        "tle_line2": "2 41589   0.0430 169.4138 0000320 119.9849 253.2688  1.00271024 34855"
      },
      "geometry": {
        "type": "Point",
        "coordinates": [
          -35.207297162154326,
          -0.005984172949168205
        ]
      }
    },
    {
      "type": "Feature",
      "properties": {
        "norad_id": 42741,
        "name": "EUTELSAT 172B",
        "group": "eutelsat",
        "lat": -0.012565874727698451,
        "lon": -106.2253180013365,
        "alt_km": 35786.79835510717,
        "timestamp": "2025-12-18T23:35:48.718909+00:00",
        "meta_object_name": "EUTELSAT 172B",
        "meta_object_id": "2017-029B",
        "meta_epoch": "2025-12-18T13:36:29.130048",
        "meta_mean_motion": 1.00272378,
        "meta_eccentricity": 2.149e-05,
        "meta_inclination": 0.0468,
        "meta_ra_of_asc_node": 144.8867,
        "meta_arg_of_pericenter": 297.3618,
        "meta_mean_anomaly": 21.2942,
        "meta_ephemeris_type": 0,
        "meta_classification_type": "U",
        "meta_norad_cat_id": 42741,
        "meta_element_set_no": 999,
        "meta_rev_at_epoch": 3192,
        "meta_bstar": 0,
        "meta_mean_motion_dot": 2e-07,
        "meta_mean_motion_ddot": 0,
        "tle_line1": "1 42741U 17029B   25352.56700382  .00000020  00000+0  00000+0 0  9995",
        "tle_line2": "2 42741   0.0468 144.8867 0000214 297.3618  21.2942  1.00272378 31924"
      },
      "geometry": {
        "type": "Point",
        "coordinates": [
          -106.2253180013365,
          -0.012565874727698451
        ]
      }
    }
  ]
}